{
  "type": "FeatureCollection",
  "features": [
    {
      "type": "Feature",
      "properties": {
        "norad_id": 66876,
        "name": "STARLINK-35702",
        "group": "last-30-days",
        "lat": 18.312264641484564,
        "lon": -128.7385582158935,
        "alt_km": 349.185187671158,
        "timestamp": "2025-12-20T22:39:09.408331+00:00",
        "meta_object_name": "STARLINK-35702",
        "meta_object_id": "2025-281AE",
        "meta_epoch": "2025-12-20T14:00:03.000384",
        "meta_mean_motion": 15.74146357,
        "meta_eccentricity": 0.00011382,
        "meta_inclination": 43.0009,
        "meta_ra_of_asc_node": 74.2465,
        "meta_arg_of_pericenter": 276.5837,
        "meta_mean_anomaly": 351.5255,
        "meta_ephemeris_type": 0,
        "meta_classification_type": "U",
        "meta_norad_cat_id": 66876,
        "meta_element_set_no": 999,
        "meta_rev_at_epoch": 268,
        "meta_bstar": -0.014607013,
        "meta_mean_motion_dot": -0.0187904,
        "meta_mean_motion_ddot": 0,
        "tle_line1": "1 66876U 25281AE  25354.58336806 -.01879040  00000+0 -14607-1 0  9998",
        "tle_line2": "2 66876  43.0009  74.2465 0001138 276.5837 351.5255 15.74146357  2685"
      },
      "geometry": {
        "type": "Point",
        "coordinates": [
          -128.7385582158935,
          18.312264641484564
        ]
      }
    },
    {
      "type": "Feature",
      "properties": {
        "norad_id": 66877,
        "name": "ZQ-3 R/B",
        "group": "last-30-days",
        "lat": 47.569705751120296,
        "lon": 160.44494694420936,
        "alt_km": 825.9600902642351,
        "timestamp": "2025-12-20T22:39:09.408342+00:00",
        "meta_object_name": "ZQ-3 R/B",
        "meta_object_id": "2025-282A",
        "meta_epoch": "2025-12-20T07:25:11.913024",
        "meta_mean_motion": 14.74860688,
        "meta_eccentricity": 0.07154631,
        "meta_inclination": 56.9493,
        "meta_ra_of_asc_node": 28.3554,
        "meta_arg_of_pericenter": 233.2383,
        "meta_mean_anomaly": 120.0902,
        "meta_ephemeris_type": 0,
        "meta_classification_type": "U",
        "meta_norad_cat_id": 66877,
        "meta_element_set_no": 999,
        "meta_rev_at_epoch": 250,
        "meta_bstar": 0.00016912558,
        "meta_mean_motion_dot": 0.0093684,
        "meta_mean_motion_ddot": 7.752874e-06,
        "tle_line1": "1 66877U 25282A   25354.30916566  .00936840  77529-5  16913-3 0  9996",
        "tle_line2": "2 66877  56.9493  28.3554 0715463 233.2383 120.0902 14.74860688  2502"
      },
      "geometry": {
        "type": "Point",
        "coordinates": [
          160.44494694420936,
          47.569705751120296
        ]
      }
    },
    {
      "type": "Feature",
      "properties": {
        "norad_id": 66878,
        "name": "STARLINK-35866",
        "group": "last-30-days",
        "lat": -14.623480823388759,
        "lon": -136.01496301722355,
        "alt_km": 349.8904656812065,
        "timestamp": "2025-12-20T22:39:09.408353+00:00",
        "meta_object_name": "STARLINK-35866",
        "meta_object_id": "2025-283A",
        "meta_epoch": "2025-12-20T14:00:03.000384",
        "meta_mean_motion": 15.74179257,
        "meta_eccentricity": 7.829e-05,
        "meta_inclination": 53.1579,
        "meta_ra_of_asc_node": 34.4928,
        "meta_arg_of_pericenter": 71.9595,
        "meta_mean_anomaly": 242.2279,
        "meta_ephemeris_type": 0,
        "meta_classification_type": "U",
        "meta_norad_cat_id": 66878,
        "meta_element_set_no": 999,
        "meta_rev_at_epoch": 368,
        "meta_bstar": -7.5487568e-05,
        "meta_mean_motion_dot": -0.00011663,
        "meta_mean_motion_ddot": 0,
        "tle_line1": "1 66878U 25283A   25354.58336806 -.00011663  00000+0 -75488-4 0  9997",
        "tle_line2": "2 66878  53.1579  34.4928 0000782  71.9595 242.2279 15.74179257  3683"
      },
      "geometry": {
        "type": "Point",
        "coordinates": [
          -136.01496301722355,
          -14.623480823388759
        ]
      }
    },
    {
      "type": "Feature",
      "properties": {
        "norad_id": 66879,
        "name": "STARLINK-35749",
        "group": "last-30-days",
        "lat": -17.613855975644714,
        "lon": -133.53316034637348,
        "alt_km": 350.33452387568013,
        "timestamp": "2025-12-20T22:39:09.408362+00:00",
        "meta_object_name": "STARLINK-35749",
        "meta_object_id": "2025-283B",
        "meta_epoch": "2025-12-20T14:00:03.000384",
        "meta_mean_motion": 15.74162517,
        "meta_eccentricity": 0.00013073,
        "meta_inclination": 53.1578,
        "meta_ra_of_asc_node": 34.485,
        "meta_arg_of_pericenter": 76.8814,
        "meta_mean_anomaly": 241.1365,
        "meta_ephemeris_type": 0,
        "meta_classification_type": "U",
        "meta_norad_cat_id": 66879,
        "meta_element_set_no": 999,
        "meta_rev_at_epoch": 368,
        "meta_bstar": 0.00017389266,
        "meta_mean_motion_dot": 0.00024884,
        "meta_mean_motion_ddot": 0,
        "tle_line1": "1 66879U 25283B   25354.58336806  .00024884  00000+0  17389-3 0  9990",
        "tle_line2": "2 66879  53.1578  34.4850 0001307  76.8814 241.1365 15.74162517  3684"
      },
      "geometry": {
        "type": "Point",
        "coordinates": [
          -133.53316034637348,
          -17.613855975644714
        ]
      }
    },
    {
      "type": "Feature",
      "properties": {
        "norad_id": 66880,
        "name": "STARLINK-35844",
        "group": "last-30-days",
        "lat": -16.124273405754725,
        "lon": -134.78164402131057,
        "alt_km": 350.2115593646067,
        "timestamp": "2025-12-20T22:39:09.408371+00:00",
        "meta_object_name": "STARLINK-35844",
        "meta_object_id": "2025-283C",
        "meta_epoch": "2025-12-20T14:00:03.000384",
        "meta_mean_motion": 15.7416538,
        "meta_eccentricity": 0.00010353,
        "meta_inclination": 53.158,
        "meta_ra_of_asc_node": 34.4891,
        "meta_arg_of_pericenter": 64.8366,
        "meta_mean_anomaly": 251.2754,
        "meta_ephemeris_type": 0,
        "meta_classification_type": "U",
        "meta_norad_cat_id": 66880,
        "meta_element_set_no": 999,
        "meta_rev_at_epoch": 368,
        "meta_bstar": 7.3268353e-05,
        "meta_mean_motion_dot": 0.00010103,
        "meta_mean_motion_ddot": 0,
        "tle_line1": "1 66880U 25283C   25354.58336806  .00010103  00000+0  73268-4 0  9990",
        "tle_line2": "2 66880  53.1580  34.4891 0001035  64.8366 251.2754 15.74165380  3686"
      },
      "geometry": {
        "type": "Point",
        "coordinates": [
          -134.78164402131057,
          -16.124273405754725
        ]
      }
    },
    {
      "type": "Feature",
      "properties": {
        "norad_id": 66881,
        "name": "STARLINK-35860",
        "group": "last-30-days",
        "lat": -19.094034061293108,
        "lon": -132.26565128231798,
        "alt_km": 350.4321374042129,
        "timestamp": "2025-12-20T22:39:09.408381+00:00",
        "meta_object_name": "STARLINK-35860",
        "meta_object_id": "2025-283D",
        "meta_epoch": "2025-12-20T14:00:03.000384",
        "meta_mean_motion": 15.74153498,
        "meta_eccentricity": 0.00012291,
        "meta_inclination": 53.1578,
        "meta_ra_of_asc_node": 34.4804,
        "meta_arg_of_pericenter": 77.9811,
        "meta_mean_anomaly": 241.9515,
        "meta_ephemeris_type": 0,
        "meta_classification_type": "U",
        "meta_norad_cat_id": 66881,
        "meta_element_set_no": 999,
        "meta_rev_at_epoch": 368,
        "meta_bstar": 0.00030767728,
        "meta_mean_motion_dot": 0.000446,
        "meta_mean_motion_ddot": 0,
        "tle_line1": "1 66881U 25283D   25354.58336806  .00044600  00000+0  30768-3 0  9997",
        "tle_line2": "2 66881  53.1578  34.4804 0001229  77.9811 241.9515 15.74153498  3681"
      },
      "geometry": {
        "type": "Point",
        "coordinates": [
          -132.26565128231798,
          -19.094034061293108
        ]
      }
    },
    {
      "type": "Feature",
      "properties": {
        "norad_id": 66882,
        "name": "STARLINK-35912",
        "group": "last-30-days",
        "lat": -20.575260172109818,
        "lon": -130.96501070513912,
        "alt_km": 350.6226954924459,
        "timestamp": "2025-12-20T22:39:09.408392+00:00",
        "meta_object_name": "STARLINK-35912",
        "meta_object_id": "2025-283E",
        "meta_epoch": "2025-12-20T14:00:03.000384",
        "meta_mean_motion": 15.74170314,
        "meta_eccentricity": 0.00010975,
        "meta_inclination": 53.1578,
        "meta_ra_of_asc_node": 34.4772,
        "meta_arg_of_pericenter": 71.0963,
        "meta_mean_anomaly": 250.7575,
        "meta_ephemeris_type": 0,
        "meta_classification_type": "U",
        "meta_norad_cat_id": 66882,
        "meta_element_set_no": 999,
        "meta_rev_at_epoch": 368,
        "meta_bstar": 6.9607107e-05,
        "meta_mean_motion_dot": 9.568e-05,
        "meta_mean_motion_ddot": 0,
        "tle_line1": "1 66882U 25283E   25354.58336806  .00009568  00000+0  69607-4 0  9997",
        "tle_line2": "2 66882  53.1578  34.4772 0001097  71.0963 250.7575 15.74170314  3682"
      },
      "geometry": {
        "type": "Point",
        "coordinates": [
          -130.96501070513912,
          -20.575260172109818
        ]
      }
    }
  ]
}